     2.10           N: GNSS NAV DATA    E: Galileo          RINEX VERSION / TYPE
RTKCONV 2.4.2                           20231216 164958 UTC PGM / RUN BY / DATE 
log: C:\Users\adminlocal\Desktop\verniquet\verniquet\micro  COMMENT             
format: u-blox                                              COMMENT             
                                                            END OF HEADER       
E 2 2023 12 16 11 40  0  .870810472406E-04  .309796632791E-11  .000000000000E+00
      .380000000000E+02  .543750000000E+01  .332835292497E-08 -.399519994297E+00
      .182539224625E-06  .466185854748E-03  .747106969357E-05  .544061440849E+04
      .560400000000E+06  .353902578354E-07  .293997171127E+01  .372529029846E-08
      .968128489912E+00  .181406250000E+03  .423750518567E+00 -.547737101163E-08
     -.615025618286E-09  .100000000000E+01  .229200000000E+04  .000000000000E+00
      .327670000000E+05  .000000000000E+00 -.698491930962E-09 -.162981450558E-08
      .561619000000E+06  .000000000000E+00
E24 2023 12 16 11 40  0 -.488915015012E-03 -.209041672861E-10  .000000000000E+00
      .380000000000E+02  .784375000000E+01  .324263506877E-08  .844981576211E+00
      .359490513802E-06  .717375194654E-03  .832043588161E-05  .544061694527E+04
      .560400000000E+06  .372529029846E-08  .294020303373E+01 -.279396772385E-07
      .965568607100E+00  .167781250000E+03  .747557468552E+00 -.540808241120E-08
     -.669670751618E-09  .100000000000E+01  .229200000000E+04  .000000000000E+00
      .327670000000E+05  .000000000000E+00 -.349245965481E-08 -.442378222942E-08
      .561617000000E+06  .000000000000E+00
E 3 2023 12 16 10 50  0 -.804703449830E-04 -.258637555817E-11  .000000000000E+00
      .330000000000E+02 -.156375000000E+03  .293047920908E-08  .541094497066E+00
     -.713765621185E-05  .256524188444E-03  .116061419249E-04  .544061884880E+04
      .557400000000E+06  .000000000000E+00  .837787770183E+00  .372529029846E-07
      .960034864917E+00  .904375000000E+02  .118292087075E+01 -.533593654889E-08
      .386444668400E-09  .100000000000E+01  .229200000000E+04  .000000000000E+00
      .327670000000E+05  .000000000000E+00  .395812094212E-08  .419095158577E-08
      .561619000000E+06  .000000000000E+00
E 8 2023 12 16 11 40  0 -.193040177692E-03 -.588329385209E-11  .000000000000E+00
      .380000000000E+02 -.140343750000E+03  .290797827182E-08  .296140799179E+00
     -.642426311970E-05  .176072237082E-03  .112298876047E-04  .544061665535E+04
      .560400000000E+06  .260770320892E-07  .836987141451E+00  .204890966415E-07
      .965924731099E+00  .102281250000E+03  .103520197746E+01 -.529700635586E-08
      .362515100209E-09  .100000000000E+01  .229200000000E+04  .000000000000E+00
      .327670000000E+05  .000000000000E+00 -.325962901115E-08 -.395812094212E-08
      .561619000000E+06  .000000000000E+00
E25 2023 12 16 11 40  0 -.188889680430E-05  .568434188608E-12  .000000000000E+00
      .380000000000E+02  .106875000000E+02  .324692096158E-08  .947782351076E+00
      .499188899994E-06  .224149087444E-03  .779516994953E-05  .544060585976E+04
      .560400000000E+06 -.745058059692E-08  .293690666090E+01  .279396772385E-07
      .967723602464E+00  .175875000000E+03 -.154810425253E+00 -.541451125041E-08
     -.620382984299E-09  .100000000000E+01  .229200000000E+04  .000000000000E+00
      .327670000000E+05  .000000000000E+00  .395812094212E-08  .419095158577E-08
      .561619000000E+06  .000000000000E+00
E 5 2023 12 16 11 20  0  .470102421241E-02  .369482222595E-11  .000000000000E+00
      .360000000000E+02 -.152531250000E+03  .296869508664E-08  .240296729323E+00
     -.696815550327E-05  .103451893665E-03  .128932297230E-04  .544061156464E+04
      .559200000000E+06 -.298023223877E-07  .837780577015E+00  .316649675369E-07
      .960049706221E+00  .617500000000E+02  .248570306701E+01 -.531843581991E-08
      .390373403476E-09  .100000000000E+01  .229200000000E+04  .000000000000E+00
      .327670000000E+05  .000000000000E+00  .372529029846E-08  .419095158577E-08
      .561627000000E+06  .000000000000E+00
E 8 2023 12 16 11 50  0 -.193043611944E-03 -.588329385209E-11  .000000000000E+00
      .390000000000E+02 -.143281250000E+03  .289333480472E-08  .368162784143E+00
     -.655651092529E-05  .176386791281E-03  .113639980555E-04  .544061769295E+04
      .561000000000E+06  .204890966415E-07  .836983937661E+00  .223517417908E-07
      .965924941760E+00  .992812500000E+02  .103756548254E+01 -.529557772493E-08
      .365372362083E-09  .100000000000E+01  .229200000000E+04  .000000000000E+00
      .327670000000E+05  .000000000000E+00 -.325962901115E-08 -.395812094212E-08
      .561679000000E+06  .000000000000E+00
E25 2023 12 16 11 50  0 -.188854755834E-05  .568434188608E-12  .000000000000E+00
      .390000000000E+02  .108125000000E+02  .324727811931E-08  .102193580476E+01
      .506639480591E-06  .224148505367E-03  .782124698162E-05  .544060596275E+04
      .561000000000E+06 -.745058059692E-08  .293690342346E+01  .242143869400E-07
      .967723242586E+00  .175468750000E+03 -.154578109473E+00 -.541379693494E-08
     -.622525930704E-09  .100000000000E+01  .229200000000E+04  .000000000000E+00
      .327670000000E+05  .000000000000E+00  .395812094212E-08  .419095158577E-08
      .561679000000E+06  .000000000000E+00
E 2 2023 12 16 11 50  0  .870829098858E-04  .309796632791E-11  .000000000000E+00
      .390000000000E+02  .596875000000E+01  .332763860950E-08 -.325167337988E+00
      .217929482460E-06  .466251396574E-03  .746175646782E-05  .544061454201E+04
      .561000000000E+06  .335276126862E-07  .293996842702E+01  .745058059692E-08
      .968128138812E+00  .181531250000E+03  .423783342060E+00 -.547487090749E-08
     -.616811406957E-09  .100000000000E+01  .229200000000E+04  .000000000000E+00
      .327670000000E+05  .000000000000E+00 -.698491930962E-09 -.162981450558E-08
      .561679000000E+06  .000000000000E+00
E 3 2023 12 16 11 50  0 -.804798910394E-04 -.261479726760E-11  .000000000000E+00
      .390000000000E+02 -.161312500000E+03  .290333522128E-08  .985274242364E+00
     -.732950866222E-05  .256762257777E-03  .116135925055E-04  .544062001228E+04
      .561000000000E+06 -.745058059692E-08  .837768480146E+00  .242143869400E-07
      .960036282485E+00  .903750000000E+02  .118505146172E+01 -.532629329007E-08
      .392516349881E-09  .100000000000E+01  .229200000000E+04  .000000000000E+00
      .327670000000E+05  .000000000000E+00  .395812094212E-08  .419095158577E-08
      .561709000000E+06  .000000000000E+00
E24 2023 12 16 11 50  0 -.488927587867E-03 -.209041672861E-10  .000000000000E+00
      .390000000000E+02  .687500000000E+01  .324549233064E-08  .919191614100E+00
      .296160578728E-06  .717387534678E-03  .833906233311E-05  .544061719894E+04
      .561000000000E+06  .931322574615E-08  .294019982994E+01 -.242143869400E-07
      .965568209186E+00  .167531250000E+03  .747732768563E+00 -.541129683080E-08
     -.673242328960E-09  .100000000000E+01  .229200000000E+04  .000000000000E+00
      .327670000000E+05  .000000000000E+00 -.349245965481E-08 -.442378222942E-08
      .562189000000E+06  .000000000000E+00
E 3 2023 12 16 12  0  0 -.804814626463E-04 -.261479726760E-11  .000000000000E+00
      .400000000000E+02 -.159625000000E+03  .291083553370E-08  .106091700517E+01
     -.724941492081E-05  .256772036664E-03  .117048621178E-04  .544061936951E+04
      .561600000000E+06 -.745058059692E-08  .837765285133E+00  .242143869400E-07
      .960036518014E+00  .884062500000E+02  .118379342970E+01 -.532665044780E-08
      .392516349881E-09  .100000000000E+01  .229200000000E+04  .000000000000E+00
      .327670000000E+05  .000000000000E+00  .395812094212E-08  .419095158577E-08
      .562279000000E+06  .000000000000E+00
E 2 2023 12 16 12  0  0  .870848307386E-04  .309796632791E-11  .000000000000E+00
      .400000000000E+02  .650000000000E+01  .332656713630E-08 -.250827521710E+00
      .253319740295E-06  .466319615953E-03  .745803117752E-05  .544061468315E+04
      .561600000000E+06  .316649675369E-07  .293996514423E+01  .111758708954E-07
      .968127784785E+00  .181625000000E+03  .423829004122E+00 -.547272796109E-08
     -.618240037893E-09  .100000000000E+01  .229200000000E+04  .000000000000E+00
      .327670000000E+05  .000000000000E+00 -.698491930962E-09 -.162981450558E-08
      .562279000000E+06  .000000000000E+00
E24 2023 12 16 12  0  0 -.488940160722E-03 -.209041672861E-10  .000000000000E+00
      .400000000000E+02  .581250000000E+01  .324799243478E-08  .993384202302E+00
      .227242708206E-06  .717390794307E-03  .834651291370E-05  .544061747742E+04
      .561600000000E+06  .149011611938E-07  .294019661883E+01 -.204890966415E-07
      .965567805421E+00  .167406250000E+03  .747925521186E+00 -.541451125041E-08
     -.676099590833E-09  .100000000000E+01  .229200000000E+04  .000000000000E+00
      .327670000000E+05  .000000000000E+00 -.349245965481E-08 -.442378222942E-08
      .562279000000E+06  .000000000000E+00
E 8 2023 12 16 12  0  0 -.193046987988E-03 -.586908299738E-11  .000000000000E+00
      .400000000000E+02 -.146875000000E+03  .287761986442E-08  .439907095553E+00
     -.671669840813E-05  .176687142812E-03  .114832073450E-04  .544061879539E+04
      .561600000000E+06  .167638063431E-07  .836980738259E+00  .223517417908E-07
      .965925155346E+00  .966250000000E+02  .104020663338E+01 -.529414909399E-08
      .367872466222E-09  .100000000000E+01  .229200000000E+04  .000000000000E+00
      .327670000000E+05  .000000000000E+00 -.325962901115E-08 -.395812094212E-08
      .562489000000E+06  .000000000000E+00
